{
  "type": "FeatureCollection",
  "features": [
    {
      "type": "Feature",
      "properties": {
        "norad_id": 28054,
        "name": "DMSP 5D-3 F16 (USA 172)",
        "group": "weather",
        "lat": -39.562557284452915,
        "lon": 166.74962890024625,
        "alt_km": 853.9839761737603,
        "timestamp": "2025-12-02T21:34:00.915294+00:00",
        "meta_object_name": "DMSP 5D-3 F16 (USA 172)",
        "meta_object_id": "2003-048A",
        "meta_epoch": "2025-12-02T12:45:47.874240",
        "meta_mean_motion": 14.14418311,
        "meta_eccentricity": 0.0006923,
        "meta_inclination": 99.0054,
        "meta_ra_of_asc_node": 353.9082,
        "meta_arg_of_pericenter": 351.8719,
        "meta_mean_anomaly": 161.4862,
        "meta_ephemeris_type": 0,
        "meta_classification_type": "U",
        "meta_norad_cat_id": 28054,
        "meta_element_set_no": 999,
        "meta_rev_at_epoch": 14168,
        "meta_bstar": 0.00012787,
        "meta_mean_motion_dot": 1.99e-06,
        "meta_mean_motion_ddot": 0,
        "tle_line1": "1 28054U 03048A   25336.53180410  .00000199  00000+0  12787-3 0  9991",
        "tle_line2": "2 28054  99.0054 353.9082 0006923 351.8719 161.4862 14.14418311141688"
      },
      "geometry": {
        "type": "Point",
        "coordinates": [
          166.74962890024625,
          -39.562557284452915
        ]
      }
    },
    {
      "type": "Feature",
      "properties": {
        "norad_id": 28912,
        "name": "METEOSAT-9 (MSG-2)",
        "group": "weather",
        "lat": 3.77705110661558,
        "lon": 80.79856503521961,
        "alt_km": 35801.50147676389,
        "timestamp": "2025-12-02T21:34:00.915347+00:00",
        "meta_object_name": "METEOSAT-9 (MSG-2)",
        "meta_object_id": "2005-049B",
        "meta_epoch": "2025-12-01T20:52:41.183904",
        "meta_mean_motion": 1.0027085,
        "meta_eccentricity": 0.00039633,
        "meta_inclination": 8.9132,
        "meta_ra_of_asc_node": 56.0736,
        "meta_arg_of_pericenter": 184.5981,
        "meta_mean_anomaly": 189.0848,
        "meta_ephemeris_type": 0,
        "meta_classification_type": "U",
        "meta_norad_cat_id": 28912,
        "meta_element_set_no": 999,
        "meta_rev_at_epoch": 502,
        "meta_bstar": 0,
        "meta_mean_motion_dot": 1.42e-06,
        "meta_mean_motion_ddot": 0,
        "tle_line1": "1 28912U 05049B   25335.86992111  .00000142  00000+0  00000+0 0  9990",
        "tle_line2": "2 28912   8.9132  56.0736 0003963 184.5981 189.0848  1.00270850  5029"
      },
      "geometry": {
        "type": "Point",
        "coordinates": [
          80.79856503521961,
          3.77705110661558
        ]
      }
    },
    {
      "type": "Feature",
      "properties": {
        "norad_id": 29522,
        "name": "DMSP 5D-3 F17 (USA 191)",
        "group": "weather",
        "lat": 36.29506310454401,
        "lon": 168.97932624738834,
        "alt_km": 842.5596922086688,
        "timestamp": "2025-12-02T21:34:00.915365+00:00",
        "meta_object_name": "DMSP 5D-3 F17 (USA 191)",
        "meta_object_id": "2006-050A",
        "meta_epoch": "2025-12-02T10:42:31.697280",
        "meta_mean_motion": 14.14912393,
        "meta_eccentricity": 0.0009138,
        "meta_inclination": 98.7395,
        "meta_ra_of_asc_node": 342.0495,
        "meta_arg_of_pericenter": 257.0841,
        "meta_mean_anomaly": 102.9312,
        "meta_ephemeris_type": 0,
        "meta_classification_type": "U",
        "meta_norad_cat_id": 29522,
        "meta_element_set_no": 999,
        "meta_rev_at_epoch": 98459,
        "meta_bstar": 0.00015118,
        "meta_mean_motion_dot": 2.49e-06,
        "meta_mean_motion_ddot": 0,
        "tle_line1": "1 29522U 06050A   25336.44620020  .00000249  00000+0  15118-3 0  9991",
        "tle_line2": "2 29522  98.7395 342.0495 0009138 257.0841 102.9312 14.14912393984598"
      },
      "geometry": {
        "type": "Point",
        "coordinates": [
          168.97932624738834,
          36.29506310454401
        ]
      }
    },
    {
      "type": "Feature",
      "properties": {
        "norad_id": 32958,
        "name": "FENGYUN 3A",
        "group": "weather",
        "lat": 53.7985875785603,
        "lon": -95.39687476139977,
        "alt_km": 820.2335613972,
        "timestamp": "2025-12-02T21:34:00.915379+00:00",
        "meta_object_name": "FENGYUN 3A",
        "meta_object_id": "2008-026A",
        "meta_epoch": "2025-12-02T11:09:37.054080",
        "meta_mean_motion": 14.19509189,
        "meta_eccentricity": 0.0008399,
        "meta_inclination": 98.6683,
        "meta_ra_of_asc_node": 276.2089,
        "meta_arg_of_pericenter": 341.9992,
        "meta_mean_anomaly": 18.0886,
        "meta_ephemeris_type": 0,
        "meta_classification_type": "U",
        "meta_norad_cat_id": 32958,
        "meta_element_set_no": 999,
        "meta_rev_at_epoch": 90749,
        "meta_bstar": 9.8241e-05,
        "meta_mean_motion_dot": 1.64e-06,
        "meta_mean_motion_ddot": 0,
        "tle_line1": "1 32958U 08026A   25336.46501220  .00000164  00000+0  98241-4 0  9990",
        "tle_line2": "2 32958  98.6683 276.2089 0008399 341.9992  18.0886 14.19509189907496"
      },
      "geometry": {
        "type": "Point",
        "coordinates": [
          -95.39687476139977,
          53.7985875785603
        ]
      }
    },
    {
      "type": "Feature",
      "properties": {
        "norad_id": 35491,
        "name": "GOES 14",
        "group": "weather",
        "lat": -0.4445110181487811,
        "lon": -72.83137713050716,
        "alt_km": 35775.08145008126,
        "timestamp": "2025-12-02T21:34:00.915394+00:00",
        "meta_object_name": "GOES 14",
        "meta_object_id": "2009-033A",
        "meta_epoch": "2025-12-02T09:40:38.804160",
        "meta_mean_motion": 1.00272643,
        "meta_eccentricity": 0.0004148,
        "meta_inclination": 1.17,
        "meta_ra_of_asc_node": 85.5307,
        "meta_arg_of_pericenter": 149.4678,
        "meta_mean_anomaly": 233.3296,
        "meta_ephemeris_type": 0,
        "meta_classification_type": "U",
        "meta_norad_cat_id": 35491,
        "meta_element_set_no": 999,
        "meta_rev_at_epoch": 462,
        "meta_bstar": 0,
        "meta_mean_motion_dot": -4.7e-07,
        "meta_mean_motion_ddot": 0,
        "tle_line1": "1 35491U 09033A   25336.40322690 -.00000047  00000+0  00000+0 0  9992",
        "tle_line2": "2 35491   1.1700  85.5307 0004148 149.4678 233.3296  1.00272643  4622"
      },
      "geometry": {
        "type": "Point",
        "coordinates": [
          -72.83137713050716,
          -0.4445110181487811
        ]
      }
    },
    {
      "type": "Feature",
      "properties": {
        "norad_id": 35951,
        "name": "DMSP 5D-3 F18 (USA 210)",
        "group": "weather",
        "lat": 15.425275595315075,
        "lon": -49.123797543508374,
        "alt_km": 841.1859706410996,
        "timestamp": "2025-12-02T21:34:00.915407+00:00",
        "meta_object_name": "DMSP 5D-3 F18 (USA 210)",
        "meta_object_id": "2009-057A",
        "meta_epoch": "2025-12-02T11:18:33.351840",
        "meta_mean_motion": 14.14759548,
        "meta_eccentricity": 0.0012109,
        "meta_inclination": 98.8823,
        "meta_ra_of_asc_node": 312.924,
        "meta_arg_of_pericenter": 89.4399,
        "meta_mean_anomaly": 270.8162,
        "meta_ephemeris_type": 0,
        "meta_classification_type": "U",
        "meta_norad_cat_id": 35951,
        "meta_element_set_no": 999,
        "meta_rev_at_epoch": 83177,
        "meta_bstar": 0.00019746,
        "meta_mean_motion_dot": 3.36e-06,
        "meta_mean_motion_ddot": 0,
        "tle_line1": "1 35951U 09057A   25336.47121935  .00000336  00000+0  19746-3 0  9996",
        "tle_line2": "2 35951  98.8823 312.9240 0012109  89.4399 270.8162 14.14759548831779"
      },
      "geometry": {
        "type": "Point",
        "coordinates": [
          -49.123797543508374,
          15.425275595315075
        ]
      }
    },
    {
      "type": "Feature",
      "properties": {
        "norad_id": 36411,
        "name": "EWS-G2 (GOES 15)",
        "group": "weather",
        "lat": 0.16493740198671292,
        "lon": 96.9556481842677,
        "alt_km": 35810.46723307327,
        "timestamp": "2025-12-02T21:34:00.915421+00:00",
        "meta_object_name": "EWS-G2 (GOES 15)",
        "meta_object_id": "2010-008A",
        "meta_epoch": "2025-12-02T05:14:38.882976",
        "meta_mean_motion": 1.0026755,
        "meta_eccentricity": 0.0005905,
        "meta_inclination": 0.7855,
        "meta_ra_of_asc_node": 86.0568,
        "meta_arg_of_pericenter": 169.385,
        "meta_mean_anomaly": 316.0641,
        "meta_ephemeris_type": 0,
        "meta_classification_type": "U",
        "meta_norad_cat_id": 36411,
        "meta_element_set_no": 999,
        "meta_rev_at_epoch": 5766,
        "meta_bstar": 0,
        "meta_mean_motion_dot": 5.8e-07,
        "meta_mean_motion_ddot": 0,
        "tle_line1": "1 36411U 10008A   25336.21850559  .00000058  00000+0  00000+0 0  9999",
        "tle_line2": "2 36411   0.7855  86.0568 0005905 169.3850 316.0641  1.00267550 57667"
      },
      "geometry": {
        "type": "Point",
        "coordinates": [
          96.9556481842677,
          0.16493740198671292
        ]
      }
    }
  ]
}